{
  "type": "FeatureCollection",
  "features": [
    {
      "type": "Feature",
      "properties": {
        "class_id": 0,
        "label": "Classe 0",
        "color": "rgb(255,255,255)"
      },
      "geometry": null
    },
    {
      "type": "Feature",
      "properties": {
        "class_id": 1,
        "label": "Classe 1",
        "color": "rgb(0,255,0)"
      },
      "geometry": null
    },
    {
      "type": "Feature",
      "properties": {
        "class_id": 2,
        "label": "Classe 2",
        "color": "rgb(0,0,255)"
      },
      "geometry": null
    },
    {
      "type": "Feature",
      "properties": {
        "class_id": 3,
        "label": "Classe 3",
        "color": "rgb(255,165,0)"
      },
      "geometry": null
    }
  ]
}